{"type": "FeatureCollection", "features": [ {"type": "Feature", "properties": {"norad_id": 34571, "name": "COSMOS 2251 DEB", "group": "cosmos-2251-debris", "lat": 65.70166649151994, "lon": -143.37161264312687, "alt_km": 758.3947644611053, "timestamp": "2025-12-15T11:38:37.546692+00:00", "meta": {"OBJECT_NAME": "COSMOS 2251 DEB", "OBJECT_ID": "1993-036VH", "EPOCH": "2025-12-13T22:51:12.596832", "MEAN_MOTION": 14.4883551, "ECCENTRICITY": 0.00658871, "INCLINATION": 74.0384, "RA_OF_ASC_NODE": 180.1597, "ARG_OF_PERICENTER": 214.8223, "MEAN_ANOMALY": 144.8618, "EPHEMERIS_TYPE": 0, "CLASSIFICATION_TYPE": "U", "NORAD_CAT_ID": 34571, "ELEMENT_SET_NO": 999, "REV_AT_EPOCH": 87311, "BSTAR": 0.0023505364, "MEAN_MOTION_DOT": 9.115e-05, "MEAN_MOTION_DDOT": 0}, "tle": {"line1": "1 34571U 93036VH  25347.95222913  .00009115  00000+0  23505-2 0  9997", "line2": "2 34571  74.0384 180.1597 0065887 214.8223 144.8618 14.48835510873116"}}, "geometry": {"type": "Point", "coordinates": [-143.37161264312687, 65.70166649151994]}}, {"type": "Feature", "properties": {"norad_id": 34572, "name": "COSMOS 2251 DEB", "group": "cosmos-2251-debris", "lat": -50.200684077523256, "lon": 90.2118856228272, "alt_km": 756.0934642185903, "timestamp": "2025-12-15T11:38:37.546702+00:00", "meta": {"OBJECT_NAME": "COSMOS 2251 DEB", "OBJECT_ID": "1993-036VJ", "EPOCH": "2025-12-14T18:22:18.038784", "MEAN_MOTION": 14.50067347, "ECCENTRICITY": 0.00625275, "INCLINATION": 74.0103, "RA_OF_ASC_NODE": 111.6958, "ARG_OF_PERICENTER": 185.2926, "MEAN_ANOMALY": 325.7806, "EPHEMERIS_TYPE": 0, "CLASSIFICATION_TYPE": "U", "NORAD_CAT_ID": 34572, "ELEMENT_SET_NO": 999, "REV_AT_EPOCH": 87407, "BSTAR": 0.0023576163, "MEAN_MOTION_DOT": 9.36e-05, "MEAN_MOTION_DDOT": 0}, "tle": {"line1": "1 34572U 93036VJ  25348.76548656  .00009360  00000+0  23576-2 0  9993", "line2": "2 34572  74.0103 111.6958 0062527 185.2926 325.7806 14.50067347874078"}}, "geometry": {"type": "Point", "coordinates": [90.2118856228272, -50.200684077523256]}}, {"type": "Feature", "properties": {"norad_id": 34574, "name": "COSMOS 2251 DEB", "group": "cosmos-2251-debris", "lat": 34.89561082501256, "lon": 49.3070438444284, "alt_km": 612.4589949090223, "timestamp": "2025-12-15T11:38:37.546712+00:00", "meta": {"OBJECT_NAME": "COSMOS 2251 DEB", "OBJECT_ID": "1993-036VL", "EPOCH": "2025-12-14T14:58:57.948384", "MEAN_MOTION": 14.70632653, "ECCENTRICITY": 0.00669415, "INCLINATION": 74.0697, "RA_OF_ASC_NODE": 39.4825, "ARG_OF_PERICENTER": 59.8581, "MEAN_ANOMALY": 101.1917, "EPHEMERIS_TYPE": 0, "CLASSIFICATION_TYPE": "U", "NORAD_CAT_ID": 34574, "ELEMENT_SET_NO": 999, "REV_AT_EPOCH": 88806, "BSTAR": 0.00076089051, "MEAN_MOTION_DOT": 4.763e-05, "MEAN_MOTION_DDOT": 0}, "tle": {"line1": "1 34574U 93036VL  25348.62428181  .00004763  00000+0  76089-3 0  9990", "line2": "2 34574  74.0697  39.4825 0066941  59.8581 101.1917 14.70632653888068"}}, "geometry": {"type": "Point", "coordinates": [49.3070438444284, 34.89561082501256]}}, {"type": "Feature", "properties": {"norad_id": 34576, "name": "COSMOS 2251 DEB", "group": "cosmos-2251-debris", "lat": -34.92496884736294, "lon": -35.472562348171486, "alt_km": 710.3098854574118, "timestamp": "2025-12-15T11:38:37.546722+00:00", "meta": {"OBJECT_NAME": "COSMOS 2251 DEB", "OBJECT_ID": "1993-036VN", "EPOCH": "2025-12-14T20:32:31.564032", "MEAN_MOTION": 14.55442417, "ECCENTRICITY": 0.0008143, "INCLINATION": 74.0334, "RA_OF_ASC_NODE": 134.1872, "ARG_OF_PERICENTER": 270.3947, "MEAN_ANOMALY": 250.5346, "EPHEMERIS_TYPE": 0, "CLASSIFICATION_TYPE": "U", "NORAD_CAT_ID": 34576, "ELEMENT_SET_NO": 999, "REV_AT_EPOCH": 88497, "BSTAR": 0.00066330986, "MEAN_MOTION_DOT": 2.858e-05, "MEAN_MOTION_DDOT": 0}, "tle": {"line1": "1 34576U 93036VN  25348.85592088  .00002858  00000+0  66331-3 0  9997", "line2": "2 34576  74.0334 134.1872 0008143 270.3947 250.5346 14.55442417884970"}}, "geometry": {"type": "Point", "coordinates": [-35.472562348171486, -34.92496884736294]}}, {"type": "Feature", "properties": {"norad_id": 34579, "name": "COSMOS 2251 DEB", "group": "cosmos-2251-debris", "lat": -24.172032138411716, "lon": -148.59110762535977, "alt_km": 732.982399206845, "timestamp": "2025-12-15T11:38:37.546731+00:00", "meta": {"OBJECT_NAME": "COSMOS 2251 DEB", "OBJECT_ID": "1993-036VR", "EPOCH": "2025-12-14T19:44:11.019264", "MEAN_MOTION": 14.45315278, "ECCENTRICITY": 0.00275478, "INCLINATION": 74.0531, "RA_OF_ASC_NODE": 220.0157, "ARG_OF_PERICENTER": 288.3733, "MEAN_ANOMALY": 199.0194, "EPHEMERIS_TYPE": 0, "CLASSIFICATION_TYPE": "U", "NORAD_CAT_ID": 34579, "ELEMENT_SET_NO": 999, "REV_AT_EPOCH": 88204, "BSTAR": 0.00036242921, "MEAN_MOTION_DOT": 1.252e-05, "MEAN_MOTION_DDOT": 0}, "tle": {"line1": "1 34579U 93036VR  25348.82234976  .00001252  00000+0  36243-3 0  9992", "line2": "2 34579  74.0531 220.0157 0027547 288.3733 199.0194 14.45315278882041"}}, "geometry": {"type": "Point", "coordinates": [-148.59110762535977, -24.172032138411716]}}, {"type": "Feature", "properties": {"norad_id": 34582, "name": "COSMOS 2251 DEB", "group": "cosmos-2251-debris", "lat": -66.746928550643, "lon": 129.09815612127198, "alt_km": 773.3230261522249, "timestamp": "2025-12-15T11:38:37.546741+00:00", "meta": {"OBJECT_NAME": "COSMOS 2251 DEB", "OBJECT_ID": "1993-036VU", "EPOCH": "2025-12-14T19:30:11.681280", "MEAN_MOTION": 14.43338299, "ECCENTRICITY": 0.00479621, "INCLINATION": 74.0199, "RA_OF_ASC_NODE": 268.5217, "ARG_OF_PERICENTER": 18.1736, "MEAN_ANOMALY": 342.1121, "EPHEMERIS_TYPE": 0, "CLASSIFICATION_TYPE": "U", "NORAD_CAT_ID": 34582, "ELEMENT_SET_NO": 999, "REV_AT_EPOCH": 87977, "BSTAR": 0.00077965145, "MEAN_MOTION_DOT": 2.639e-05, "MEAN_MOTION_DDOT": 0}, "tle": {"line1": "1 34582U 93036VU  25348.81263520  .00002639  00000+0  77965-3 0  9998", "line2": "2 34582  74.0199 268.5217 0047962  18.1736 342.1121 14.43338299879777"}}, "geometry": {"type": "Point", "coordinates": [129.09815612127198, -66.746928550643]}}, {"type": "Feature", "properties": {"norad_id": 34588, "name": "COSMOS 2251 DEB", "group": "cosmos-2251-debris", "lat": -60.501755652723986, "lon": -127.21100896708963, "alt_km": 745.742110745552, "timestamp": "2025-12-15T11:38:37.546751+00:00", "meta": {"OBJECT_NAME": "COSMOS 2251 DEB", "OBJECT_ID": "1993-036WA", "EPOCH": "2025-12-14T21:15:33.469056", "MEAN_MOTION": 14.42029509, "ECCENTRICITY": 0.00192125, "INCLINATION": 74.0438, "RA_OF_ASC_NODE": 264.2785, "ARG_OF_PERICENTER": 316.7764, "MEAN_ANOMALY": 108.3245, "EPHEMERIS_TYPE": 0, "CLASSIFICATION_TYPE": "U", "NORAD_CAT_ID": 34588, "ELEMENT_SET_NO": 999, "REV_AT_EPOCH": 87981, "BSTAR": 0.00039982016, "MEAN_MOTION_DOT": 1.289e-05, "MEAN_MOTION_DDOT": 0}, "tle": {"line1": "1 34588U 93036WA  25348.88580404  .00001289  00000+0  39982-3 0  9991", "line2": "2 34588  74.0438 264.2785 0019212 316.7764 108.3245 14.42029509879811"}}, "geometry": {"type": "Point", "coordinates": [-127.21100896708963, -60.501755652723986]}}, {"type": "Feature", "properties": {"norad_id": 34589, "name": "COSMOS 2251 DEB", "group": "cosmos-2251-debris", "lat": -53.028841587411605, "lon": 28.833330281930493, "alt_km": 828.5386050764137, "timestamp": "2025-12-15T11:38:37.546761+00:00", "meta": {"OBJECT_NAME": "COSMOS 2251 DEB", "OBJECT_ID": "1993-036WB", "EPOCH": "2025-12-14T13:42:25.155936", "MEAN_MOTION": 13.86054156, "ECCENTRICITY": 0.0252014, "INCLINATION": 73.9256, "RA_OF_ASC_NODE": 52.9114, "ARG_OF_PERICENTER": 355.8599, "MEAN_ANOMALY": 71.054, "EPHEMERIS_TYPE": 0, "CLASSIFICATION_TYPE": "U", "NORAD_CAT_ID": 34589, "ELEMENT_SET_NO": 999, "REV_AT_EPOCH": 84737, "BSTAR": 0.00032226738, "MEAN_MOTION_DOT": 4.52e-06, "MEAN_MOTION_DDOT": 0}, "tle": {"line1": "1 34589U 93036WB  25348.57112449  .00000452  00000+0  32227-3 0  9994", "line2": "2 34589  73.9256  52.9114 0252014 355.8599  71.0540 13.86054156847378"}}, "geometry": {"type": "Point", "coordinates": [28.833330281930493, -53.028841587411605]}}, {"type": "Feature", "properties": {"norad_id": 34590, "name": "COSMOS 2251 DEB", "group": "cosmos-2251-debris", "lat": -64.52372723136435, "lon": 174.26105345747033, "alt_km": 762.9776123829406, "timestamp": "2025-12-15T11:38:37.546770+00:00", "meta": {"OBJECT_NAME": "COSMOS 2251 DEB", "OBJECT_ID": "1993-036WC", "EPOCH": "2025-12-14T21:24:08.512416", "MEAN_MOTION": 14.54828102, "ECCENTRICITY": 0.00679453, "INCLINATION": 74.0439, "RA_OF_ASC_NODE": 318.4795, "ARG_OF_PERICENTER": 87.4596, "MEAN_ANOMALY": 295.6121, "EPHEMERIS_TYPE": 0, "CLASSIFICATION_TYPE": "U", "NORAD_CAT_ID": 34590, "ELEMENT_SET_NO": 999, "REV_AT_EPOCH": 89152, "BSTAR": 0.00014093719, "MEAN_MOTION_DOT": 5.94e-06, "MEAN_MOTION_DDOT": 0}, "tle": {"line1": "1 34590U 93036WC  25348.89176519  .00000594  00000+0  14094-3 0  9998", "line2": "2 34590  74.0439 318.4795 0067945  87.4596 295.6121 14.54828102891523"}}, "geometry": {"type": "Point", "coordinates": [174.26105345747033, -64.52372723136435]}}, {"type": "Feature", "properties": {"norad_id": 34609, "name": "COSMOS 2251 DEB", "group": "cosmos-2251-debris", "lat": 51.42724112788823, "lon": 123.18089397730729, "alt_km": 819.5986635360177, "timestamp": "2025-12-15T11:38:37.546780+00:00", "meta": {"OBJECT_NAME": "COSMOS 2251 DEB", "OBJECT_ID": "1993-036WE", "EPOCH": "2025-12-14T19:15:11.954880", "MEAN_MOTION": 14.21803039, "ECCENTRICITY": 0.0145247, "INCLINATION": 73.733, "RA_OF_ASC_NODE": 102.9523, "ARG_OF_PERICENTER": 322.1129, "MEAN_ANOMALY": 196.5764, "EPHEMERIS_TYPE": 0, "CLASSIFICATION_TYPE": "U", "NORAD_CAT_ID": 34609, "ELEMENT_SET_NO": 999, "REV_AT_EPOCH": 86661, "BSTAR": 0.00080864912, "MEAN_MOTION_DOT": 1.954e-05, "MEAN_MOTION_DDOT": 0}, "tle": {"line1": "1 34609U 93036WE  25348.80222170  .00001954  00000+0  80865-3 0  9995", "line2": "2 34609  73.7330 102.9523 0145247 322.1129 196.5764 14.21803039866618"}}, "geometry": {"type": "Point", "coordinates": [123.18089397730729, 51.42724112788823]}}]}